CCSDS_OMM_VERS = 2.0
CREATION_DATE  = 
ORIGINATOR     = 

OBJECT_NAME    = STARLINK-35799
OBJECT_ID      = 2025-247AB
CENTER_NAME    = EARTH
REF_FRAME      = TEME
TIME_SYSTEM    = UTC
MEAN_ELEMENT_THEORY = SGP/SGP4

EPOCH          = 2025-11-22T14:00:04.000032
MEAN_MOTION    = 15.49267293
ECCENTRICITY   = .00011758
INCLINATION    = 53.1589
RA_OF_ASC_NODE = 332.4373
ARG_OF_PERICENTER = 87.2466
MEAN_ANOMALY   = 353.7205

EPHEMERIS_TYPE = 0
CLASSIFICATION_TYPE = U
NORAD_CAT_ID   = 66290
ELEMENT_SET_NO = 999
REV_AT_EPOCH   = 470
BSTAR          = .11578706E-2
MEAN_MOTION_DOT = .64385E-3
MEAN_MOTION_DDOT = 0

CCSDS_OMM_VERS = 2.0
CREATION_DATE  = 
ORIGINATOR     = 

OBJECT_NAME    = STARLINK-35800
OBJECT_ID      = 2025-247AC
CENTER_NAME    = EARTH
REF_FRAME      = TEME
TIME_SYSTEM    = UTC
MEAN_ELEMENT_THEORY = SGP/SGP4

EPOCH          = 2025-11-22T14:00:04.000032
MEAN_MOTION    = 15.49270381
ECCENTRICITY   = .00011696
INCLINATION    = 53.1588
RA_OF_ASC_NODE = 332.4287
ARG_OF_PERICENTER = 90.5943
MEAN_ANOMALY   = 354.2139

EPHEMERIS_TYPE = 0
CLASSIFICATION_TYPE = U
NORAD_CAT_ID   = 66291
ELEMENT_SET_NO = 999
REV_AT_EPOCH   = 470
BSTAR          = .89660076E-3
MEAN_MOTION_DOT = .49667E-3
MEAN_MOTION_DDOT = 0

CCSDS_OMM_VERS = 2.0
CREATION_DATE  = 
ORIGINATOR     = 

OBJECT_NAME    = STARLINK-35798
OBJECT_ID      = 2025-247AD
CENTER_NAME    = EARTH
REF_FRAME      = TEME
TIME_SYSTEM    = UTC
MEAN_ELEMENT_THEORY = SGP/SGP4

EPOCH          = 2025-11-22T14:00:04.000032
MEAN_MOTION    = 15.49355310
ECCENTRICITY   = .00013728
INCLINATION    = 53.1589
RA_OF_ASC_NODE = 332.4331
ARG_OF_PERICENTER = 77.6772
MEAN_ANOMALY   = 5.0916

EPHEMERIS_TYPE = 0
CLASSIFICATION_TYPE = U
NORAD_CAT_ID   = 66292
ELEMENT_SET_NO = 999
REV_AT_EPOCH   = 438
BSTAR          = -.20153164E-3
MEAN_MOTION_DOT = -.11659E-3
MEAN_MOTION_DDOT = 0

CCSDS_OMM_VERS = 2.0
CREATION_DATE  = 
ORIGINATOR     = 

OBJECT_NAME    = LVM3 R/B
OBJECT_ID      = 2025-249A
CENTER_NAME    = EARTH
REF_FRAME      = TEME
TIME_SYSTEM    = UTC
MEAN_ELEMENT_THEORY = SGP/SGP4

EPOCH          = 2025-11-22T10:35:13.742592
MEAN_MOTION    = 3.13504514
ECCENTRICITY   = .6673758
INCLINATION    = 21.3443
RA_OF_ASC_NODE = 149.1652
ARG_OF_PERICENTER = 198.7723
MEAN_ANOMALY   = 114.5155

EPHEMERIS_TYPE = 0
CLASSIFICATION_TYPE = U
NORAD_CAT_ID   = 66310
ELEMENT_SET_NO = 999
REV_AT_EPOCH   = 64
BSTAR          = .109184E-2
MEAN_MOTION_DOT = .39058E-3
MEAN_MOTION_DDOT = -.573378E-6

CCSDS_OMM_VERS = 2.0
CREATION_DATE  = 
ORIGINATOR     = 

OBJECT_NAME    = CMS-03 (GSAT-7R)
OBJECT_ID      = 2025-249B
CENTER_NAME    = EARTH
REF_FRAME      = TEME
TIME_SYSTEM    = UTC
MEAN_ELEMENT_THEORY = SGP/SGP4

EPOCH          = 2025-11-22T12:48:34.619328
MEAN_MOTION    = 1.00273077
ECCENTRICITY   = .00046497
INCLINATION    = 0.1924
RA_OF_ASC_NODE = 271.6504
ARG_OF_PERICENTER = 196.6967
MEAN_ANOMALY   = 239.0883

EPHEMERIS_TYPE = 0
CLASSIFICATION_TYPE = U
NORAD_CAT_ID   = 66311
ELEMENT_SET_NO = 999
REV_AT_EPOCH   = 28
BSTAR          = 0
MEAN_MOTION_DOT = -.237E-5
MEAN_MOTION_DDOT = 0

CCSDS_OMM_VERS = 2.0
CREATION_DATE  = 
ORIGINATOR     = 

OBJECT_NAME    = YAOGAN-46
OBJECT_ID      = 2025-250A
CENTER_NAME    = EARTH
REF_FRAME      = TEME
TIME_SYSTEM    = UTC
MEAN_ELEMENT_THEORY = SGP/SGP4

EPOCH          = 2025-11-19T17:03:07.460064
MEAN_MOTION    = 5.35115933
ECCENTRICITY   = .00492424
INCLINATION    = 20.0323
RA_OF_ASC_NODE = 106.9378
ARG_OF_PERICENTER = 131.7872
MEAN_ANOMALY   = 228.6447

EPHEMERIS_TYPE = 0
CLASSIFICATION_TYPE = U
NORAD_CAT_ID   = 66313
ELEMENT_SET_NO = 999
REV_AT_EPOCH   = 96
BSTAR          = 0
MEAN_MOTION_DOT = -.9E-7
MEAN_MOTION_DDOT = 0

CCSDS_OMM_VERS = 2.0
CREATION_DATE  = 
ORIGINATOR     = 

OBJECT_NAME    = SENTINEL-1D
OBJECT_ID      = 2025-251A
CENTER_NAME    = EARTH
REF_FRAME      = TEME
TIME_SYSTEM    = UTC
MEAN_ELEMENT_THEORY = SGP/SGP4

EPOCH          = 2025-11-22T12:01:47.149824
MEAN_MOTION    = 14.59749359
ECCENTRICITY   = .00012525
INCLINATION    = 98.1938
RA_OF_ASC_NODE = 331.7883
ARG_OF_PERICENTER = 191.1844
MEAN_ANOMALY   = 168.9328

EPHEMERIS_TYPE = 0
CLASSIFICATION_TYPE = U
NORAD_CAT_ID   = 66315
ELEMENT_SET_NO = 999
REV_AT_EPOCH   = 258
BSTAR          = .42217805E-4
MEAN_MOTION_DOT = .155E-5
MEAN_MOTION_DDOT = 0

CCSDS_OMM_VERS = 2.0
CREATION_DATE  = 
ORIGINATOR     = 

OBJECT_NAME    = QPS-SAR-14 (YACHIHOKO-I)
OBJECT_ID      = 2025-252A
CENTER_NAME    = EARTH
REF_FRAME      = TEME
TIME_SYSTEM    = UTC
MEAN_ELEMENT_THEORY = SGP/SGP4

EPOCH          = 2025-11-22T14:15:29.489184
MEAN_MOTION    = 14.97402781
ECCENTRICITY   = .00079875
INCLINATION    = 42.0029
RA_OF_ASC_NODE = 185.7948
ARG_OF_PERICENTER = 8.3187
MEAN_ANOMALY   = 351.7768

EPHEMERIS_TYPE = 0
CLASSIFICATION_TYPE = U
NORAD_CAT_ID   = 66316
ELEMENT_SET_NO = 999
REV_AT_EPOCH   = 251
BSTAR          = .43835228E-3
MEAN_MOTION_DOT = .5006E-4
MEAN_MOTION_DDOT = 0

CCSDS_OMM_VERS = 2.0
CREATION_DATE  = 
ORIGINATOR     = 

OBJECT_NAME    = ELECTRON R/B
OBJECT_ID      = 2025-252B
CENTER_NAME    = EARTH
REF_FRAME      = TEME
TIME_SYSTEM    = UTC
MEAN_ELEMENT_THEORY = SGP/SGP4

EPOCH          = 2025-11-22T12:07:17.290272
MEAN_MOTION    = 15.76456690
ECCENTRICITY   = .01790443
INCLINATION    = 41.9926
RA_OF_ASC_NODE = 176.2541
ARG_OF_PERICENTER = 353.2458
MEAN_ANOMALY   = 6.5988

EPHEMERIS_TYPE = 0
CLASSIFICATION_TYPE = U
NORAD_CAT_ID   = 66317
ELEMENT_SET_NO = 999
REV_AT_EPOCH   = 261
BSTAR          = .15400982E-2
MEAN_MOTION_DOT = .776726E-2
MEAN_MOTION_DDOT = .2107846E-3

CCSDS_OMM_VERS = 2.0
CREATION_DATE  = 
ORIGINATOR     = 

OBJECT_NAME    = ELECTRON KICK STAGE R/B
OBJECT_ID      = 2025-252C
CENTER_NAME    = EARTH
REF_FRAME      = TEME
TIME_SYSTEM    = UTC
MEAN_ELEMENT_THEORY = SGP/SGP4

EPOCH          = 2025-11-21T15:20:23.075808
MEAN_MOTION    = 15.84079469
ECCENTRICITY   = .01598329
INCLINATION    = 41.9825
RA_OF_ASC_NODE = 181.0244
ARG_OF_PERICENTER = 138.8628
MEAN_ANOMALY   = 222.4404

EPHEMERIS_TYPE = 0
CLASSIFICATION_TYPE = U
NORAD_CAT_ID   = 66318
ELEMENT_SET_NO = 999
REV_AT_EPOCH   = 248
BSTAR          = .17685325E-2
MEAN_MOTION_DOT = .118136E-1
MEAN_MOTION_DDOT = .7631215E-5

CCSDS_OMM_VERS = 2.0
CREATION_DATE  = 
ORIGINATOR     = 

OBJECT_NAME    = STARLINK-35442
OBJECT_ID      = 2025-253A
CENTER_NAME    = EARTH
REF_FRAME      = TEME
TIME_SYSTEM    = UTC
MEAN_ELEMENT_THEORY = SGP/SGP4

EPOCH          = 2025-11-22T14:00:04.000032
MEAN_MOTION    = 15.70489195
ECCENTRICITY   = .00011767
INCLINATION    = 42.9994
RA_OF_ASC_NODE = 103.0262
ARG_OF_PERICENTER = 276.3846
MEAN_ANOMALY   = 280.3330

EPHEMERIS_TYPE = 0
CLASSIFICATION_TYPE = U
NORAD_CAT_ID   = 66319
ELEMENT_SET_NO = 999
REV_AT_EPOCH   = 378
BSTAR          = -.17813333E-1
MEAN_MOTION_DOT = -.1987583E-1
MEAN_MOTION_DDOT = 0

CCSDS_OMM_VERS = 2.0
CREATION_DATE  = 
ORIGINATOR     = 

OBJECT_NAME    = STARLINK-34616
OBJECT_ID      = 2025-253B
CENTER_NAME    = EARTH
REF_FRAME      = TEME
TIME_SYSTEM    = UTC
MEAN_ELEMENT_THEORY = SGP/SGP4

EPOCH          = 2025-11-22T14:00:04.000032
MEAN_MOTION    = 15.70482357
ECCENTRICITY   = .0001182
INCLINATION    = 42.9993
RA_OF_ASC_NODE = 103.0209
ARG_OF_PERICENTER = 273.0074
MEAN_ANOMALY   = 285.6321

EPHEMERIS_TYPE = 0
CLASSIFICATION_TYPE = U
NORAD_CAT_ID   = 66320
ELEMENT_SET_NO = 999
REV_AT_EPOCH   = 389
BSTAR          = -.17738969E-1
MEAN_MOTION_DOT = -.1979765E-1
MEAN_MOTION_DDOT = 0

