STARLINK-35799          
1 66290U 25247AB  25326.58337963  .00064385  00000+0  11579-2 0  9995
2 66290  53.1589 332.4373 0001175  87.2466 353.7205 15.49267293  4702
STARLINK-35800          
1 66291U 25247AC  25326.58337963  .00049667  00000+0  89660-3 0  9999
2 66291  53.1588 332.4287 0001169  90.5943 354.2139 15.49270381  4700
STARLINK-35798          
1 66292U 25247AD  25326.58337963 -.00011659  00000+0 -20153-3 0  9994
2 66292  53.1589 332.4331 0001372  77.6772   5.0916 15.49355310  4388
LVM3 R/B                
1 66310U 25249A   25326.44113128  .00039058 -57338-6  10918-2 0  9999
2 66310  21.3443 149.1652 6673758 198.7723 114.5155  3.13504514   640
CMS-03 (GSAT-7R)        
1 66311U 25249B   25326.53373402 -.00000237  00000+0  00000+0 0  9995
2 66311   0.1924 271.6504 0004649 196.6967 239.0883  1.00273077   287
YAOGAN-46               
1 66313U 25250A   25323.71050301 -.00000009  00000+0  00000+0 0  9993
2 66313  20.0323 106.9378 0049242 131.7872 228.6447  5.35115933   968
SENTINEL-1D             
1 66315U 25251A   25326.50124016  .00000155  00000+0  42218-4 0  9994
2 66315  98.1938 331.7883 0001252 191.1844 168.9328 14.59749359  2580
QPS-SAR-14 (YACHIHOKO-I)
1 66316U 25252A   25326.59409131  .00005006  00000+0  43835-3 0  9994
2 66316  42.0029 185.7948 0007987   8.3187 351.7768 14.97402781  2519
ELECTRON R/B            
1 66317U 25252B   25326.50506123  .00776726  21078-3  15401-2 0  9998
2 66317  41.9926 176.2541 0179044 353.2458   6.5988 15.76456690  2611
ELECTRON KICK STAGE R/B 
1 66318U 25252C   25325.63915597  .01181360  76312-5  17685-2 0  9995
2 66318  41.9825 181.0244 0159832 138.8628 222.4404 15.84079469  2484
STARLINK-35442          
1 66319U 25253A   25326.58337963 -.01987583  00000+0 -17813-1 0  9997
2 66319  42.9994 103.0262 0001176 276.3846 280.3330 15.70489195  3785
STARLINK-34616          
1 66320U 25253B   25326.58337963 -.01979765  00000+0 -17739-1 0  9999
2 66320  42.9993 103.0209 0001182 273.0074 285.6321 15.70482357  3894
